#dP2024  9 13  0  0  0.00000000      96 __u+U IGS20 EXT  IAC
## 2331 432000.00000000   900.00000000 60566 0.0000000000000
+   53   G02G03G04G05G06G07G08G09G10G11G12G13G14G15G16G17G18
+        G19G20G21G22G23G24G25G26G27G28G29G30G31G32R01R02R03
+        R04R05R07R08R09R11R12R14R15R16R17R18R19R20R21R22R24
+        R25R26  0  0  0  0  0  0  0  0  0  0  0  0  0  0  0
+          0  0  0  0  0  0  0  0  0  0  0  0  0  0  0  0  0
++         8  7  7  8  8  8  7  7  8  9  7  7  8  7  8  8  8
++         8  7  6  8  8  8  7  7  8  8  0  7  7  7  8  7  9
++         9  8  8  8  8  9  9  9  7  8  9 10  8 10  7  9  7
++         7  9  0  0  0  0  0  0  0  0  0  0  0  0  0  0  0
++         0  0  0  0  0  0  0  0  0  0  0  0  0  0  0  0  0
%c M  cc GPS ccc cccc cccc cccc cccc ccccc ccccc ccccc ccccc
%c cc cc ccc ccc cccc cccc cccc cccc ccccc ccccc ccccc ccccc
%f  0.0000000  0.000000000  0.00000000000  0.000000000000000
%f  0.0000000  0.000000000  0.00000000000  0.000000000000000
%i    0    0    0    0      0      0      0      0         0
%i    0    0    0    0      0      0      0      0         0
/* IAC                                ULTRA-RAPID PREDICTION
/* S/V CLOCKS ARE ALIGNED TO GNSS TIME                      
/* G:C1WC2W R:C1PC2P E:C1XC5X C:C2IC6I J:C1CC2S             
/* PCV:IGS20_2317 OL/AL:FES2004  NONE     YN ORB:CoN CLK:CoN
*  2024 09 13 17 30  0.00000000
PG02 -13807.781127  13999.942884  18168.783010   -358.813433
PG03 -21986.942156  13013.432946  -7212.192520    536.434482
PG04 -13262.297806   8111.236482 -21537.994302    442.989252
PG05  24795.034269  -3782.761673  -9025.674688   -186.471278
PG06   6162.629919  20812.586207 -15167.855760     33.294085
PG07  -5932.375396  25501.369356  -2045.308552    -38.328481
PG08 -21131.553485  -1847.334790  16132.489362    351.217142
PG09  -2634.589871  16477.449983 -20741.718701    355.015953
PG10  -7031.045512 -13120.633745  22225.527931   -124.139395
PG11  13702.602734   7081.575083 -21599.694285   -734.152134
PG12  24222.413564 -10090.297689  -4222.106675   -537.780843
PG13  20961.545723  11451.771930  11639.728642    676.279153
PG14   2690.138154  15468.871806  21452.738889    494.763634
PG15  21002.177228   -965.859338  15810.435306    203.868835
PG16 -23903.975356  -2326.848908 -12154.232707   -181.999366
PG17  11186.485257  21353.632074  11377.266762    627.861760
PG18   6286.850129 -25606.527489  -1923.986622   -653.112885
PG19  17208.585117  20348.388733   2611.717180    537.594677
PG20  19555.552619   2962.434571 -17585.166388    370.674451
PG21 -15115.243631   7216.523078  20763.232564    101.820435
PG22  10691.986733  12503.134920  21205.800521    -61.480546
PG23   7381.410483 -16761.293080  19179.048868    319.361266
PG24  14323.886009 -12248.517285  18111.634945   -486.713072
PG25  15462.134529 -16651.074842 -13875.803231    499.611664
PG26 -15569.670586  -9038.257455 -19796.020378     79.694779
PG27 -22713.877861 -11787.285535   7594.154522    -33.832381
PG28  -6057.245590 -22307.114251 -13093.290123   -409.814329
PG29   6536.009541 -14208.983296 -21493.682715   -578.088998
PG30   1386.190806  25277.612364   7718.198671   -321.981170
PG31 -12473.351458 -11670.732165 -20473.429622   -224.746764
PG32 -13718.287934 -20511.461043  10306.618722   -597.498133
PR01  -2513.912966  10658.285762 -23043.480031     97.674060
PR02  14465.901560  13176.834925 -16283.262851    -24.649734
PR03  24074.417191   8326.111425   -105.074867    107.480109
PR04  20147.354998   -504.110470  15646.374318    254.514415
PR05   5582.444050  -9315.334939  23083.650839    137.600612
PR07 -24192.098558  -8172.757973   -356.221219     90.831856
PR08 -20080.968714    826.363492 -15680.198514     -6.395604
PR09  -1632.275953 -13227.755199 -21743.136720    208.938402
PR11 -20354.125842  12320.413205  -9158.118058     11.936547
PR12 -13817.854736  18798.015020  10354.792623     44.800410
PR14  15105.987475   -115.200355  20575.639239     26.911296
PR15  20496.526130 -13191.888476   7556.730134     75.915668
PR16  13963.094293 -18798.471282 -10146.861012     29.097135
PR17  11387.502360  11228.271933 -19880.259405    121.684196
PR18   9343.316995  -6491.600641 -22816.983717    161.874807
PR19   4200.647763 -19741.389738 -15586.527303   -291.234577
PR20  -5656.715803 -24409.473696   4871.926629   -119.009928
PR21 -11164.636898 -11944.807599  19566.952242   -134.160711
PR22  -9596.349915   7561.025699  22419.283179     47.733767
PR24   7085.428829  23937.024284  -5294.298450    -71.883821
PR25 -11253.101587 -11168.737088  19979.666509   -100.586318
PR26 -20930.545906    101.521471 -14552.255624     25.826100
*  2024 09 13 17 45  0.00000000
PG02 -13819.493045  11910.706720  19657.130950   -358.806314
PG03 -22654.250069  13082.124206  -4403.119335    536.446359
PG04 -15087.670030   6512.199938 -20882.484929    442.995665
PG05  23828.608205  -3131.397864 -11565.848943   -186.472452
PG06   5772.571572  22386.977728 -12913.030123     33.270736
PG07  -6186.158856  25001.422075  -4870.699805    -38.324397
PG08 -22431.789832  -3011.720341  14127.586293    351.228873
PG09  -4597.460961  15101.643230 -21443.460835    355.030348
PG10  -4714.806770 -14038.555487  22247.878157   -124.150404
PG11  13202.468054   9470.949333 -20993.847005   -734.156021
PG12  24577.381026  -9939.317444  -1385.970573   -537.783359
PG13  21665.127143  12452.559048   9118.792995    676.280992
PG14    399.430344  16273.702065  20996.610798    494.771314
PG15  22440.967773    104.507878  13816.465219    203.872738
PG16 -22561.565301  -2912.119346 -14406.290034   -181.990205
PG17  10022.057356  20584.727561  13738.671259    627.851649
PG18   6452.910011 -25186.997321  -4786.332874   -653.114946
PG19  16728.208271  20169.085804   5405.630111    537.599114
PG20  17845.617045   4221.063217 -19090.153746    370.674086
PG21 -15108.954865   4856.645060  21548.773613    101.819785
PG22   8432.514954  13250.389036  21800.642490    -61.483923
PG23   9355.132481 -17491.381101  17578.457543    319.368830
PG24  14409.332897  -9992.438581  19391.671313   -486.712850
PG25  16861.712465 -16985.366262 -11571.637167    499.611706
PG26 -13569.206491 -10149.513004 -20682.416724     79.687151
PG27 -23167.173158 -12411.620975   4882.949998    -33.832525
PG28  -5700.430270 -23636.029848 -10701.052585   -409.826874
PG29   8385.737969 -12570.224486 -21880.816161   -578.086762
PG30    960.502374  25945.202274   5026.393552   -321.974762
PG31 -11990.470458 -13865.061997 -19314.878392   -224.746384
PG32 -12582.882786 -19886.240942  12727.292987   -597.494892
PR01  -5247.869878   9910.117870 -22915.939235     97.675163
PR02  12448.712391  12419.350136 -18408.239137    -24.649922
PR03  23913.568479   8111.102355  -3320.013677    107.480739
PR04  21879.181541    -99.282952  13119.188003    254.515911
PR05   8274.153819  -8475.991499  22591.609588    137.601071
PR07 -24098.347977  -7968.852511   2855.001890     90.832531
PR08 -21828.061327    420.809536 -13172.809435     -6.395626
PR09    191.154046 -15097.243141 -20561.905994    208.940319
PR11 -19318.108307  11510.513427 -12009.535095     11.935547
PR12 -14527.411569  19636.009658   7399.765528     44.800776
PR14  13190.546560   1656.289928  21789.596047     26.911321
PR15  19605.607830 -12518.374447  10500.770888     75.915325
PR16  14639.942739 -19639.324610  -7170.326671     29.097380
PR17  12004.901656  13489.826551 -18030.102471    121.687235
PR18   9902.872386  -3700.233234 -23197.772195    161.876464
PR19   4412.037243 -17679.707683 -17840.861801   -291.235814
PR20  -5943.451854 -24767.441694   1660.215642   -119.010291
PR21 -11760.382257 -14168.536504  17635.743300   -134.163618
PR22 -10080.604549   4809.958458  22960.199365     47.725645
PR24   7334.558740  24352.597963  -2123.622451    -71.885286
PR25 -11757.305822 -13470.120265  18187.133649   -100.585663
PR26 -22536.141656   -243.985806 -11915.223974     25.837605
EOF
